TEVEL2-2                
1 63219U 25052K   26068.64848259  .00020339  00000+0  69428-3 0  9991
2 63219  97.3987 324.7700 0004693 105.7930 254.3828 15.30343745 54855
STARLINK-34606          
1 64730U 25144G   26068.62522771  .00034051  00000+0  11569-2 0  9996
2 64730  53.1601 181.2267 0000854 103.2301 256.8795 15.30188216 39708
